GLOBALSTAR M075         
1 37192U 10054E   24291.25150846 -.00000059  00000+0  25179-3 0  9992
2 37192  51.9938 201.2232 0000639  72.4013  99.0066 12.62267557645699
GLOBALSTAR M073         
1 37193U 10054F   24290.93345156 -.00000072  00000+0  17691-3 0  9992
2 37193  52.0041 115.8237 0000952 102.3242  62.6704 12.62271454647112
GLOBALSTAR M083         
1 37739U 11033A   24290.86115674 -.00000105  00000+0 -90411-5 0  9999
2 37739  51.9863  65.1055 0000927  94.0045  42.8281 12.62266294616126
GLOBALSTAR M088         
1 37740U 11033B   24291.12813300 -.00000062  00000+0  23281-3 0  9992
2 37740  51.9746 329.9914 0000493  86.1081 305.4843 12.62263340611994
GLOBALSTAR M091         
1 37741U 11033C   24291.23160826 -.00000078  00000+0  14496-3 0  9998
2 37741  51.9994 292.7993 0000701  66.3026  13.8352 12.62268705612766
GLOBALSTAR M085         
1 37742U 11033D   24291.23082569 -.00000083  00000+0  11451-3 0  9990
2 37742  51.9856 244.0518 0000807  61.3341  76.5302 12.62267461613501
GLOBALSTAR M081         
1 37743U 11033E   24291.25765219 -.00000095  00000+0  50792-4 0  9998
2 37743  51.9951 246.6069 0000817  77.5216  62.5958 12.62271058613541
GLOBALSTAR M089         
1 37744U 11033F   24291.13949685 -.00000069  00000+0  19206-3 0  9992
2 37744  51.9922 201.2429 0000575  91.4525  49.8454 12.62270777614240
